CCSDS_OMM_VERS = 2.0
CREATION_DATE  = 
ORIGINATOR     = 

OBJECT_NAME    = COSMOS 2058
OBJECT_ID      = 1990-010A
CENTER_NAME    = EARTH
REF_FRAME      = TEME
TIME_SYSTEM    = UTC
MEAN_ELEMENT_THEORY = SGP/SGP4

EPOCH          = 2026-03-27T06:12:45.610272
MEAN_MOTION    = 15.11475253
ECCENTRICITY   = .00074269
INCLINATION    = 82.4684
RA_OF_ASC_NODE = 30.1149
ARG_OF_PERICENTER = 274.9238
MEAN_ANOMALY   = 85.1144

EPHEMERIS_TYPE = 0
CLASSIFICATION_TYPE = U
NORAD_CAT_ID   = 20465
ELEMENT_SET_NO = 999
REV_AT_EPOCH   = 94489
BSTAR          = .27685339E-3
MEAN_MOTION_DOT = .4714E-4
MEAN_MOTION_DDOT = 0

CCSDS_OMM_VERS = 2.0
CREATION_DATE  = 
ORIGINATOR     = 

OBJECT_NAME    = SL-14 R/B
OBJECT_ID      = 1990-010B
CENTER_NAME    = EARTH
REF_FRAME      = TEME
TIME_SYSTEM    = UTC
MEAN_ELEMENT_THEORY = SGP/SGP4

EPOCH          = 2026-03-27T03:43:54.207264
MEAN_MOTION    = 14.83584383
ECCENTRICITY   = .00185076
INCLINATION    = 82.4994
RA_OF_ASC_NODE = 250.9775
ARG_OF_PERICENTER = 240.2295
MEAN_ANOMALY   = 119.7080

EPHEMERIS_TYPE = 0
CLASSIFICATION_TYPE = U
NORAD_CAT_ID   = 20466
ELEMENT_SET_NO = 999
REV_AT_EPOCH   = 93107
BSTAR          = .57602408E-4
MEAN_MOTION_DOT = .499E-5
MEAN_MOTION_DDOT = 0

CCSDS_OMM_VERS = 2.0
CREATION_DATE  = 
ORIGINATOR     = 

OBJECT_NAME    = SL-14 R/B
OBJECT_ID      = 1990-018B
CENTER_NAME    = EARTH
REF_FRAME      = TEME
TIME_SYSTEM    = UTC
MEAN_ELEMENT_THEORY = SGP/SGP4

EPOCH          = 2026-03-26T17:13:12.287712
MEAN_MOTION    = 14.82161327
ECCENTRICITY   = .0017088
INCLINATION    = 82.5234
RA_OF_ASC_NODE = 207.1767
ARG_OF_PERICENTER = 40.1511
MEAN_ANOMALY   = 320.0962

EPHEMERIS_TYPE = 0
CLASSIFICATION_TYPE = U
NORAD_CAT_ID   = 20511
ELEMENT_SET_NO = 999
REV_AT_EPOCH   = 92510
BSTAR          = .52147456E-4
MEAN_MOTION_DOT = .44E-5
MEAN_MOTION_DDOT = 0

CCSDS_OMM_VERS = 2.0
CREATION_DATE  = 
ORIGINATOR     = 

OBJECT_NAME    = HST
OBJECT_ID      = 1990-037B
CENTER_NAME    = EARTH
REF_FRAME      = TEME
TIME_SYSTEM    = UTC
MEAN_ELEMENT_THEORY = SGP/SGP4

EPOCH          = 2026-03-27T05:34:42.549888
MEAN_MOTION    = 15.29746183
ECCENTRICITY   = .00016259
INCLINATION    = 28.4721
RA_OF_ASC_NODE = 280.3064
ARG_OF_PERICENTER = 332.1046
MEAN_ANOMALY   = 27.9462

EPHEMERIS_TYPE = 0
CLASSIFICATION_TYPE = U
NORAD_CAT_ID   = 20580
ELEMENT_SET_NO = 999
REV_AT_EPOCH   = 77600
BSTAR          = .24182932E-3
MEAN_MOTION_DOT = .7403E-4
MEAN_MOTION_DDOT = 0

CCSDS_OMM_VERS = 2.0
CREATION_DATE  = 
ORIGINATOR     = 

OBJECT_NAME    = SL-16 R/B
OBJECT_ID      = 1990-046B
CENTER_NAME    = EARTH
REF_FRAME      = TEME
TIME_SYSTEM    = UTC
MEAN_ELEMENT_THEORY = SGP/SGP4

EPOCH          = 2026-03-27T05:29:25.778112
MEAN_MOTION    = 14.15015194
ECCENTRICITY   = .00162887
INCLINATION    = 70.9972
RA_OF_ASC_NODE = 261.0750
ARG_OF_PERICENTER = 276.5697
MEAN_ANOMALY   = 83.3571

EPHEMERIS_TYPE = 0
CLASSIFICATION_TYPE = U
NORAD_CAT_ID   = 20625
ELEMENT_SET_NO = 999
REV_AT_EPOCH   = 85087
BSTAR          = .16603824E-3
MEAN_MOTION_DOT = .274E-5
MEAN_MOTION_DDOT = 0

CCSDS_OMM_VERS = 2.0
CREATION_DATE  = 
ORIGINATOR     = 

OBJECT_NAME    = COSMOS 2084
OBJECT_ID      = 1990-055A
CENTER_NAME    = EARTH
REF_FRAME      = TEME
TIME_SYSTEM    = UTC
MEAN_ELEMENT_THEORY = SGP/SGP4

EPOCH          = 2026-03-27T06:06:56.576736
MEAN_MOTION    = 15.05743328
ECCENTRICITY   = .00143017
INCLINATION    = 62.7892
RA_OF_ASC_NODE = 275.6640
ARG_OF_PERICENTER = 195.3758
MEAN_ANOMALY   = 164.6910

EPHEMERIS_TYPE = 0
CLASSIFICATION_TYPE = U
NORAD_CAT_ID   = 20663
ELEMENT_SET_NO = 999
REV_AT_EPOCH   = 93896
BSTAR          = .1840011E-3
MEAN_MOTION_DOT = .2479E-4
MEAN_MOTION_DDOT = 0

CCSDS_OMM_VERS = 2.0
CREATION_DATE  = 
ORIGINATOR     = 

OBJECT_NAME    = SL-6 R/B(2)
OBJECT_ID      = 1990-055D
CENTER_NAME    = EARTH
REF_FRAME      = TEME
TIME_SYSTEM    = UTC
MEAN_ELEMENT_THEORY = SGP/SGP4

EPOCH          = 2026-03-27T06:16:37.323840
MEAN_MOTION    = 15.03677154
ECCENTRICITY   = .00276709
INCLINATION    = 62.7830
RA_OF_ASC_NODE = 194.0903
ARG_OF_PERICENTER = 351.0864
MEAN_ANOMALY   = 8.9740

EPHEMERIS_TYPE = 0
CLASSIFICATION_TYPE = U
NORAD_CAT_ID   = 20666
ELEMENT_SET_NO = 999
REV_AT_EPOCH   = 94083
BSTAR          = .14466329E-3
MEAN_MOTION_DOT = .1804E-4
MEAN_MOTION_DDOT = 0

CCSDS_OMM_VERS = 2.0
CREATION_DATE  = 
ORIGINATOR     = 

OBJECT_NAME    = SL-8 R/B
OBJECT_ID      = 1990-078B
CENTER_NAME    = EARTH
REF_FRAME      = TEME
TIME_SYSTEM    = UTC
MEAN_ELEMENT_THEORY = SGP/SGP4

EPOCH          = 2026-03-26T21:48:56.495808
MEAN_MOTION    = 14.89584455
ECCENTRICITY   = .03587554
INCLINATION    = 82.9018
RA_OF_ASC_NODE = 235.8155
ARG_OF_PERICENTER = 315.9447
MEAN_ANOMALY   = 41.3686

EPHEMERIS_TYPE = 0
CLASSIFICATION_TYPE = U
NORAD_CAT_ID   = 20775
ELEMENT_SET_NO = 999
REV_AT_EPOCH   = 81186
BSTAR          = .39440095E-3
MEAN_MOTION_DOT = .13317E-3
MEAN_MOTION_DDOT = 0

CCSDS_OMM_VERS = 2.0
CREATION_DATE  = 
ORIGINATOR     = 

OBJECT_NAME    = SL-8 R/B
OBJECT_ID      = 1991-006B
CENTER_NAME    = EARTH
REF_FRAME      = TEME
TIME_SYSTEM    = UTC
MEAN_ELEMENT_THEORY = SGP/SGP4

EPOCH          = 2026-03-27T06:36:41.827968
MEAN_MOTION    = 13.77496846
ECCENTRICITY   = .00219478
INCLINATION    = 82.9448
RA_OF_ASC_NODE = 156.9719
ARG_OF_PERICENTER = 349.5976
MEAN_ANOMALY   = 73.8380

EPHEMERIS_TYPE = 0
CLASSIFICATION_TYPE = U
NORAD_CAT_ID   = 21088
ELEMENT_SET_NO = 999
REV_AT_EPOCH   = 76649
BSTAR          = .61547285E-4
MEAN_MOTION_DOT = .76E-6
MEAN_MOTION_DDOT = 0

CCSDS_OMM_VERS = 2.0
CREATION_DATE  = 
ORIGINATOR     = 

OBJECT_NAME    = OKEAN-3
OBJECT_ID      = 1991-039A
CENTER_NAME    = EARTH
REF_FRAME      = TEME
TIME_SYSTEM    = UTC
MEAN_ELEMENT_THEORY = SGP/SGP4

EPOCH          = 2026-03-27T02:24:16.727040
MEAN_MOTION    = 15.04905269
ECCENTRICITY   = .00123118
INCLINATION    = 82.5165
RA_OF_ASC_NODE = 319.9750
ARG_OF_PERICENTER = 272.2560
MEAN_ANOMALY   = 87.7257

EPHEMERIS_TYPE = 0
CLASSIFICATION_TYPE = U
NORAD_CAT_ID   = 21397
ELEMENT_SET_NO = 999
REV_AT_EPOCH   = 86765
BSTAR          = .14975517E-3
MEAN_MOTION_DOT = .2149E-4
MEAN_MOTION_DDOT = 0

CCSDS_OMM_VERS = 2.0
CREATION_DATE  = 
ORIGINATOR     = 

OBJECT_NAME    = COSMOS 2151
OBJECT_ID      = 1991-042A
CENTER_NAME    = EARTH
REF_FRAME      = TEME
TIME_SYSTEM    = UTC
MEAN_ELEMENT_THEORY = SGP/SGP4

EPOCH          = 2026-03-27T05:25:26.840640
MEAN_MOTION    = 15.00177198
ECCENTRICITY   = .00126047
INCLINATION    = 82.4944
RA_OF_ASC_NODE = 66.7547
ARG_OF_PERICENTER = 8.5922
MEAN_ANOMALY   = 351.5515

EPHEMERIS_TYPE = 0
CLASSIFICATION_TYPE = U
NORAD_CAT_ID   = 21422
ELEMENT_SET_NO = 999
REV_AT_EPOCH   = 86582
BSTAR          = .2023428E-3
MEAN_MOTION_DOT = .2557E-4
MEAN_MOTION_DDOT = 0

CCSDS_OMM_VERS = 2.0
CREATION_DATE  = 
ORIGINATOR     = 

OBJECT_NAME    = SL-14 R/B
OBJECT_ID      = 1991-042B
CENTER_NAME    = EARTH
REF_FRAME      = TEME
TIME_SYSTEM    = UTC
MEAN_ELEMENT_THEORY = SGP/SGP4

EPOCH          = 2026-03-27T07:32:40.526880
MEAN_MOTION    = 14.81846921
ECCENTRICITY   = .00170851
INCLINATION    = 82.4954
RA_OF_ASC_NODE = 203.6583
ARG_OF_PERICENTER = 178.3157
MEAN_ANOMALY   = 181.8118

EPHEMERIS_TYPE = 0
CLASSIFICATION_TYPE = U
NORAD_CAT_ID   = 21423
ELEMENT_SET_NO = 999
REV_AT_EPOCH   = 85568
BSTAR          = .57249857E-4
MEAN_MOTION_DOT = .477E-5
MEAN_MOTION_DDOT = 0

